[{"OBJECT_NAME":"STARLINK-31718","OBJECT_ID":"2024-074Y","EPOCH":"2026-03-09T02:42:40.873248","MEAN_MOTION":15.27570812,"ECCENTRICITY":0.00014893,"INCLINATION":43.0002,"RA_OF_ASC_NODE":346.9961,"ARG_OF_PERICENTER":264.0794,"MEAN_ANOMALY":95.9888,"EPHEMERIS_TYPE":0,"CLASSIFICATION_TYPE":"U","NORAD_CAT_ID":59556,"ELEMENT_SET_NO":999,"REV_AT_EPOCH":10592,"BSTAR":-6.6303972e-5,"MEAN_MOTION_DOT":-2.086e-5,"MEAN_MOTION_DDOT":0},{"OBJECT_NAME":"EDISON-1","OBJECT_ID":"2025-009B","EPOCH":"2026-03-09T19:16:13.822464","MEAN_MOTION":15.29042904,"ECCENTRICITY":0.00043285,"INCLINATION":97.4042,"RA_OF_ASC_NODE":151.6286,"ARG_OF_PERICENTER":306.4185,"MEAN_ANOMALY":53.6655,"EPHEMERIS_TYPE":0,"CLASSIFICATION_TYPE":"U","NORAD_CAT_ID":62610,"ELEMENT_SET_NO":999,"REV_AT_EPOCH":6375,"BSTAR":0.00052814963,"MEAN_MOTION_DOT":0.00014835,"MEAN_MOTION_DDOT":0}]
